NORAD_CAT_ID,OBJECT_NAME,OBJECT_TYPE,EPOCH,MEAN_MOTION,ECCENTRICITY,INCLINATION,RA_OF_ASC_NODE,ARG_OF_PERICENTER,MEAN_ANOMALY,BSTAR,MEAN_MOTION_DOT,MEAN_MOTION_DDOT,TLE_LINE0,TLE_LINE1,TLE_LINE2,SEMIMAJOR_AXIS,PERIOD,APOGEE,PERIGEE,DECAYED
51805.0,STARLINK-3605,PAYLOAD,2024-03-25 21:19:42,15.0884566,0.0001183,53.2171,293.5743,86.7656,273.3472,0.00028119,4.191e-05,0.0,0 STARLINK-3605,1 51805U 22017AP  24085.88868681  .00004191  00000-0  28119-3 0  9992,2 51805  53.2171 293.5743 0001183  86.7656 273.3472 15.08845660116485,6917.863,95.437,540.546,538.91,0.0
51805.0,STARLINK-3605,PAYLOAD,2024-03-26 13:13:34,15.08827695,0.0001443,53.2165,290.6006,82.3515,277.7641,-0.00020374,-3.528e-05,0.0,0 STARLINK-3605,1 51805U 22017AP  24086.55109333 -.00003528  00000-0 -20374-3 0  9999,2 51805  53.2165 290.6006 0001443  82.3515 277.7641 15.08827695116588,6917.918,95.438,540.781,538.785,0.0
51805.0,STARLINK-3605,PAYLOAD,2024-03-26 19:35:07,15.08820416,7.47e-05,53.2159,289.4133,51.8399,308.266,0.00029099,4.344e-05,0.0,0 STARLINK-3605,1 51805U 22017AP  24086.81605955  .00004344  00000-0  29099-3 0  9997,2 51805  53.2159 289.4133 0000747  51.8399 308.2660 15.08820416116625,6917.94,95.439,540.322,539.288,0.0
51805.0,STARLINK-3605,PAYLOAD,2024-03-26 22:45:53,15.08835568,0.0001049,53.2156,288.8167,79.4556,280.6554,0.00015032,2.105e-05,0.0,0 STARLINK-3605,1 51805U 22017AP  24086.94853244  .00002105  00000-0  15032-3 0  9992,2 51805  53.2156 288.8167 0001049  79.4556 280.6554 15.08835568116640,6917.894,95.438,540.485,539.033,0.0
51805.0,STARLINK-3605,PAYLOAD,2024-03-27 13:04:21,15.08839208,0.0001719,53.2166,286.1396,85.4699,274.6489,4.3816e-05,4.09e-06,0.0,0 STARLINK-3605,1 51805U 22017AP  24087.54469335  .00000409  00000-0  43816-4 0  9990,2 51805  53.2166 286.1396 0001719  85.4699 274.6489 15.08839208116730,6917.883,95.438,540.937,538.559,0.0
51805.0,STARLINK-3605,PAYLOAD,2024-03-27 19:25:54,15.0883763,0.0001408,53.2178,284.9508,93.9371,266.1782,3.9287e-06,-2.25e-06,0.0,0 STARLINK-3605,1 51805U 22017AP  24087.80965425 -.00000225  00000-0  39287-5 0  9995,2 51805  53.2178 284.9508 0001408  93.9371 266.1782 15.08837630116773,6917.888,95.438,540.727,538.779,0.0
51805.0,STARLINK-3605,PAYLOAD,2024-03-28 12:55:08,15.0883533,0.0001277,53.2174,281.6794,87.1428,272.971,0.00035221,5.321e-05,0.0,0 STARLINK-3605,1 51805U 22017AP  24088.53829706  .00005321  00000-0  35221-3 0  9990,2 51805  53.2174 281.6794 0001277  87.1428 272.9710 15.08835330116885,6917.895,95.438,540.643,538.876,0.0
51805.0,STARLINK-3605,PAYLOAD,2024-03-28 19:16:41,15.08838119,0.0001225,53.2172,280.4894,92.071,268.0422,0.00033531,5.052e-05,0.0,0 STARLINK-3605,1 51805U 22017AP  24088.80325617  .00005052  00000-0  33531-3 0  9995,2 51805  53.2172 280.4894 0001225  92.0710 268.0422 15.08838119116922,6917.886,95.438,540.599,538.904,0.0
51805.0,STARLINK-3605,PAYLOAD,2024-03-29 12:45:55,15.08840014,0.0001243,53.2161,277.2188,92.4663,267.6472,0.00028294,4.218e-05,0.0,0 STARLINK-3605,1 51805U 22017AP  24089.53189630  .00004218  00000-0  28294-3 0  9992,2 51805  53.2161 277.2188 0001243  92.4663 267.6472 15.08840014117031,6917.88,95.438,540.605,538.885,0.0
51805.0,STARLINK-3605,PAYLOAD,2024-03-29 19:07:29,15.08821281,0.0001405,53.2163,276.0299,95.809,264.3063,-3.834e-05,-8.98e-06,0.0,0 STARLINK-3605,1 51805U 22017AP  24089.79686657 -.00000898  00000-0 -38340-4 0  9997,2 51805  53.2163 276.0299 0001405  95.8090 264.3063 15.08821281117073,6917.938,95.439,540.775,538.831,0.0
51805.0,STARLINK-3605,PAYLOAD,2024-03-30 12:36:43,15.08830344,0.0003028,53.2129,272.7558,101.0307,259.1026,-7.4517e-05,-1.474e-05,0.0,0 STARLINK-3605,1 51805U 22017AP  24090.52550715 -.00001474  00000-0 -74517-4 0  9992,2 51805  53.2129 272.7558 0003028 101.0307 259.1026 15.08830344117183,6917.91,95.438,541.87,537.68,0.0
51805.0,STARLINK-3605,PAYLOAD,2024-03-30 18:58:16,15.08841307,3.65e-05,53.2246,271.5733,38.4477,321.6541,4.6291e-05,4.49e-06,0.0,0 STARLINK-3605,1 51805U 22017AP  24090.79046383  .00000449  00000-0  46291-4 0  9999,2 51805  53.2246 271.5733 0000365  38.4477 321.6541 15.08841307117220,6917.876,95.437,539.994,539.489,0.0
51805.0,STARLINK-3605,PAYLOAD,2024-03-31 04:30:32,15.08880985,0.0001612,53.2198,269.7885,113.3541,246.762,-0.0010292,-0.00016649,0.0,0 STARLINK-3605,1 51805U 22017AP  24091.18787646 -.00016649  00000-0 -10292-2 0  9998,2 51805  53.2198 269.7885 0001612 113.3541 246.7620 15.08880985117280,6917.755,95.435,540.735,538.505,0.0
51805.0,STARLINK-3605,PAYLOAD,2024-03-31 12:27:30,15.08851392,0.0001125,53.219,268.3004,95.942,264.1701,0.00064583,0.00010009,0.0,0 STARLINK-3605,1 51805U 22017AP  24091.51910377  .00010009  00000-0  64583-3 0  9999,2 51805  53.2190 268.3004 0001125  95.9420 264.1701 15.08851392117330,6917.846,95.437,540.489,538.932,0.0
51805.0,STARLINK-3605,PAYLOAD,2024-03-31 18:49:02,15.08870671,0.0001114,53.2192,267.1114,94.8554,265.2565,0.00087602,0.00013693,0.0,0 STARLINK-3605,1 51805U 22017AP  24091.78405774  .00013693  00000-0  87602-3 0  9997,2 51805  53.2192 267.1114 0001114  94.8554 265.2565 15.08870671117370,6917.787,95.436,540.422,538.881,0.0
51805.0,STARLINK-3605,PAYLOAD,2024-04-01 12:18:16,15.08844569,0.0001168,53.2187,263.8402,110.6474,249.4643,-0.00037775,-6.295e-05,0.0,0 STARLINK-3605,1 51805U 22017AP  24092.51269216 -.00006295  00000-0 -37775-3 0  9996,2 51805  53.2187 263.8402 0001168 110.6474 249.4643 15.08844569117484,6917.866,95.437,540.539,538.923,0.0
51805.0,STARLINK-3605,PAYLOAD,2024-04-02 10:33:40,15.08850659,0.0001813,53.2157,259.6761,85.4897,274.6302,0.00090092,0.00014083,0.0,0 STARLINK-3605,1 51805U 22017AP  24093.44005720  .00014083  00000-0  90092-3 0  9990,2 51805  53.2157 259.6761 0001813  85.4897 274.6302 15.08850659117622,6917.848,95.437,540.967,538.459,0.0
51805.0,STARLINK-3605,PAYLOAD,2024-04-02 20:05:59,15.08841379,8.83e-05,53.2161,257.8923,91.7725,268.3368,0.00033263,5.01e-05,0.0,0 STARLINK-3605,1 51805U 22017AP  24093.83749635  .00005010  00000-0  33263-3 0  9990,2 51805  53.2161 257.8923 0000883  91.7725 268.3368 15.08841379117680,6917.876,95.437,540.352,539.13,0.0
51805.0,STARLINK-3605,PAYLOAD,2024-04-03 10:24:27,15.08848067,9.68e-05,53.2167,255.2173,92.5467,267.5636,0.00043154,6.588e-05,0.0,0 STARLINK-3605,1 51805U 22017AP  24094.43365576  .00006588  00000-0  43154-3 0  9996,2 51805  53.2167 255.2173 0000968  92.5467 267.5636 15.08848067117771,6917.856,95.437,540.39,539.051,0.0
51805.0,STARLINK-3605,PAYLOAD,2024-04-03 19:56:46,15.08847353,9.39e-05,53.2161,253.4321,85.4755,274.6345,0.00038657,5.871e-05,0.0,0 STARLINK-3605,1 51805U 22017AP  24094.83109604  .00005871  00000-0  38657-3 0  9994,2 51805  53.2161 253.4321 0000939  85.4755 274.6345 15.08847353117839,6917.858,95.437,540.373,539.073,0.0
51805.0,STARLINK-3605,PAYLOAD,2024-04-04 10:15:15,15.08841578,9.34e-05,53.2157,250.7546,85.7242,274.3857,0.00013582,1.875e-05,0.0,0 STARLINK-3605,1 51805U 22017AP  24095.42725696  .00001875  00000-0  13582-3 0  9995,2 51805  53.2157 250.7546 0000934  85.7242 274.3857 15.08841578117920,6917.876,95.437,540.387,539.094,0.0
51805.0,STARLINK-3605,PAYLOAD,2024-04-04 15:01:24,15.0883965,9.26e-05,53.2159,249.8621,84.9506,275.1591,0.0001161,1.56e-05,0.0,0 STARLINK-3605,1 51805U 22017AP  24095.62597877  .00001560  00000-0  11610-3 0  9996,2 51805  53.2159 249.8621 0000926  84.9506 275.1591 15.08839650117955,6917.881,95.438,540.387,539.106,0.0
51805.0,STARLINK-3605,PAYLOAD,2024-04-04 19:47:33,15.08841382,9.09e-05,53.2162,248.9689,97.74,262.3696,0.00010657,1.409e-05,0.0,0 STARLINK-3605,1 51805U 22017AP  24095.82469736  .00001409  00000-0  10657-3 0  9992,2 51805  53.2162 248.9689 0000909  97.7400 262.3696 15.08841382117981,6917.876,95.437,540.37,539.112,0.0
51805.0,STARLINK-3605,PAYLOAD,2024-04-05 13:16:48,15.08847147,8.34e-05,53.2174,245.698,101.175,258.9336,0.00015513,2.183e-05,0.0,0 STARLINK-3605,1 51805U 22017AP  24096.55333433  .00002183  00000-0  15513-3 0  9993,2 51805  53.2174 245.6980 0000834 101.1750 258.9336 15.08847147118097,6917.859,95.437,540.3,539.147,0.0
51805.0,STARLINK-3605,PAYLOAD,2024-04-05 19:38:20,15.08850704,9.39e-05,53.217,244.5094,92.7059,267.404,0.00018963,2.732e-05,0.0,0 STARLINK-3605,1 51805U 22017AP  24096.81829211  .00002732  00000-0  18963-3 0  9998,2 51805  53.2170 244.5094 0000939  92.7059 267.4040 15.08850704118135,6917.848,95.437,540.362,539.063,0.0
51805.0,STARLINK-3605,PAYLOAD,2024-04-06 09:56:48,15.08843775,9.43e-05,53.2178,241.8323,87.5029,272.6071,0.00013953,1.934e-05,0.0,0 STARLINK-3605,1 51805U 22017AP  24097.41445557  .00001934  00000-0  13953-3 0  9999,2 51805  53.2178 241.8323 0000943  87.5029 272.6071 15.08843775118224,6917.869,95.437,540.386,539.081,0.0
51805.0,STARLINK-3605,PAYLOAD,2024-04-06 16:18:21,15.08836708,9.53e-05,53.2183,240.6421,87.5891,272.521,1.5338e-05,-4.4e-07,0.0,0 STARLINK-3605,1 51805U 22017AP  24097.67941921 -.00000044  00000-0  15338-4 0  9995,2 51805  53.2183 240.6421 0000953  87.5891 272.5210 15.08836708118260,6917.89,95.438,540.415,539.096,0.0
51805.0,STARLINK-3605,PAYLOAD,2024-04-07 09:47:36,15.08834578,9.35e-05,53.2174,237.3686,85.2325,274.8774,-3.9611e-05,-9.18e-06,0.0,0 STARLINK-3605,1 51805U 22017AP  24098.40806205 -.00000918  00000-0 -39611-4 0  9993,2 51805  53.2174 237.3686 0000935  85.2325 274.8774 15.08834578118378,6917.897,95.438,540.409,539.115,0.0
51805.0,STARLINK-3605,PAYLOAD,2024-04-07 16:09:09,15.08834368,0.0001008,53.2192,236.1828,80.2777,279.8329,-1.0626e-05,-4.57e-06,0.0,0 STARLINK-3605,1 51805U 22017AP  24098.67302344 -.00000457  00000-0 -10626-4 0  9990,2 51805  53.2192 236.1828 0001008  80.2777 279.8329 15.08834368118414,6917.898,95.438,540.46,539.065,0.0
51805.0,STARLINK-3605,PAYLOAD,2024-04-08 01:41:27,15.08839289,0.0001445,53.2198,234.3991,86.1379,273.9778,-2.7435e-05,-7.25e-06,0.0,0 STARLINK-3605,1 51805U 22017AP  24099.07046157 -.00000725  00000-0 -27435-4 0  9996,2 51805  53.2198 234.3991 0001445  86.1379 273.9778 15.08839289118475,6917.883,95.438,540.747,538.748,0.0
